{
  "type": "FeatureCollection",
  "features": [
    {
      "type": "Feature",
      "properties": {
        "norad_id": 39617,
        "name": "ASTRA 5B (EGNOS/PRN 123)",
        "group": "gnss",
        "lat": 0.049381213371329565,
        "lon": 65.92747314733145,
        "alt_km": 35804.641347855104,
        "timestamp": "2025-12-09T21:34:11.649399+00:00",
        "meta_object_name": "ASTRA 5B (EGNOS/PRN 123)",
        "meta_object_id": "2014-011B",
        "meta_epoch": "2025-12-09T13:41:07.035648",
        "meta_mean_motion": 1.00270577,
        "meta_eccentricity": 0.00045071,
        "meta_inclination": 0.0557,
        "meta_ra_of_asc_node": 30.975,
        "meta_arg_of_pericenter": 231.8027,
        "meta_mean_anomaly": 44.5462,
        "meta_ephemeris_type": 0,
        "meta_classification_type": "U",
        "meta_norad_cat_id": 39617,
        "meta_element_set_no": 999,
        "meta_rev_at_epoch": 4276,
        "meta_bstar": 0,
        "meta_mean_motion_dot": 1.39e-06,
        "meta_mean_motion_ddot": 0,
        "tle_line1": "1 39617U 14011B   25343.57022032  .00000139  00000+0  00000+0 0  9992",
        "tle_line2": "2 39617   0.0557  30.9750 0004507 231.8027  44.5462  1.00270577 42761"
      },
      "geometry": {
        "type": "Point",
        "coordinates": [
          65.92747314733145,
          0.049381213371329565
        ]
      }
    },
    {
      "type": "Feature",
      "properties": {
        "norad_id": 39620,
        "name": "COSMOS 2492 (754)",
        "group": "gnss",
        "lat": 59.57391542510979,
        "lon": 89.14041801028819,
        "alt_km": 19156.816231370252,
        "timestamp": "2025-12-09T21:34:11.649410+00:00",
        "meta_object_name": "COSMOS 2492 (754)",
        "meta_object_id": "2014-012A",
        "meta_epoch": "2025-12-09T06:54:46.186848",
        "meta_mean_motion": 2.13102988,
        "meta_eccentricity": 0.00142075,
        "meta_inclination": 65.4097,
        "meta_ra_of_asc_node": 320.3884,
        "meta_arg_of_pericenter": 310.998,
        "meta_mean_anomaly": 48.8757,
        "meta_ephemeris_type": 0,
        "meta_classification_type": "U",
        "meta_norad_cat_id": 39620,
        "meta_element_set_no": 999,
        "meta_rev_at_epoch": 9119,
        "meta_bstar": 0,
        "meta_mean_motion_dot": -4.9e-07,
        "meta_mean_motion_ddot": 0,
        "tle_line1": "1 39620U 14012A   25343.28803457 -.00000049  00000+0  00000+0 0  9994",
        "tle_line2": "2 39620  65.4097 320.3884 0014207 310.9980  48.8757  2.13102988 91198"
      },
      "geometry": {
        "type": "Point",
        "coordinates": [
          89.14041801028819,
          59.57391542510979
        ]
      }
    },
    {
      "type": "Feature",
      "properties": {
        "norad_id": 39635,
        "name": "IRNSS-1B",
        "group": "gnss",
        "lat": -15.636533323490966,
        "lon": 94.22212248738744,
        "alt_km": 35722.48430556701,
        "timestamp": "2025-12-09T21:34:11.649421+00:00",
        "meta_object_name": "IRNSS-1B",
        "meta_object_id": "2014-017A",
        "meta_epoch": "2025-12-07T19:02:08.350080",
        "meta_mean_motion": 1.00276938,
        "meta_eccentricity": 0.00176548,
        "meta_inclination": 28.8332,
        "meta_ra_of_asc_node": 243.6763,
        "meta_arg_of_pericenter": 183.0277,
        "meta_mean_anomaly": 350.7455,
        "meta_ephemeris_type": 0,
        "meta_classification_type": "U",
        "meta_norad_cat_id": 39635,
        "meta_element_set_no": 999,
        "meta_rev_at_epoch": 4287,
        "meta_bstar": 0,
        "meta_mean_motion_dot": 1.18e-06,
        "meta_mean_motion_ddot": 0,
        "tle_line1": "1 39635U 14017A   25341.79315220  .00000118  00000+0  00000+0 0  9991",
        "tle_line2": "2 39635  28.8332 243.6763 0017654 183.0277 350.7455  1.00276938 42872"
      },
      "geometry": {
        "type": "Point",
        "coordinates": [
          94.22212248738744,
          -15.636533323490966
        ]
      }
    },
    {
      "type": "Feature",
      "properties": {
        "norad_id": 39727,
        "name": "LUCH 5V (SDCM/PRN 141)",
        "group": "gnss",
        "lat": 4.256474831897819,
        "lon": 137.0938402808853,
        "alt_km": 35800.57952386152,
        "timestamp": "2025-12-09T21:34:11.649433+00:00",
        "meta_object_name": "LUCH 5V (SDCM/PRN 141)",
        "meta_object_id": "2014-023A",
        "meta_epoch": "2025-12-08T17:28:47.961696",
        "meta_mean_motion": 1.00270251,
        "meta_eccentricity": 0.00045753,
        "meta_inclination": 4.6594,
        "meta_ra_of_asc_node": 71.5729,
        "meta_arg_of_pericenter": 204.2143,
        "meta_mean_anomaly": 158.9163,
        "meta_ephemeris_type": 0,
        "meta_classification_type": "U",
        "meta_norad_cat_id": 39727,
        "meta_element_set_no": 999,
        "meta_rev_at_epoch": 4245,
        "meta_bstar": 0,
        "meta_mean_motion_dot": -2.68e-06,
        "meta_mean_motion_ddot": 0,
        "tle_line1": "1 39727U 14023A   25342.72833289 -.00000268  00000+0  00000+0 0  9991",
        "tle_line2": "2 39727   4.6594  71.5729 0004575 204.2143 158.9163  1.00270251 42452"
      },
      "geometry": {
        "type": "Point",
        "coordinates": [
          137.0938402808853,
          4.256474831897819
        ]
      }
    },
    {
      "type": "Feature",
      "properties": {
        "norad_id": 39741,
        "name": "GPS BIIF-6  (PRN 06)",
        "group": "gnss",
        "lat": -53.45396957451613,
        "lon": -84.06932885682754,
        "alt_km": 20100.63038112835,
        "timestamp": "2025-12-09T21:34:11.649445+00:00",
        "meta_object_name": "GPS BIIF-6  (PRN 06)",
        "meta_object_id": "2014-026A",
        "meta_epoch": "2025-12-09T12:03:20.841120",
        "meta_mean_motion": 2.00561505,
        "meta_eccentricity": 0.00391055,
        "meta_inclination": 56.5849,
        "meta_ra_of_asc_node": 338.9023,
        "meta_arg_of_pericenter": 318.4921,
        "meta_mean_anomaly": 41.2219,
        "meta_ephemeris_type": 0,
        "meta_classification_type": "U",
        "meta_norad_cat_id": 39741,
        "meta_element_set_no": 999,
        "meta_rev_at_epoch": 8473,
        "meta_bstar": 0,
        "meta_mean_motion_dot": -8.4e-07,
        "meta_mean_motion_ddot": 0,
        "tle_line1": "1 39741U 14026A   25343.50232455 -.00000084  00000+0  00000+0 0  9991",
        "tle_line2": "2 39741  56.5849 338.9023 0039105 318.4921  41.2219  2.00561505 84732"
      },
      "geometry": {
        "type": "Point",
        "coordinates": [
          -84.06932885682754,
          -53.45396957451613
        ]
      }
    },
    {
      "type": "Feature",
      "properties": {
        "norad_id": 40001,
        "name": "COSMOS 2500 (755)",
        "group": "gnss",
        "lat": -21.33211681145671,
        "lon": -50.212266447087366,
        "alt_km": 19142.442833781948,
        "timestamp": "2025-12-09T21:34:11.649469+00:00",
        "meta_object_name": "COSMOS 2500 (755)",
        "meta_object_id": "2014-032A",
        "meta_epoch": "2025-12-09T11:02:48.490944",
        "meta_mean_motion": 2.13105796,
        "meta_eccentricity": 0.00083097,
        "meta_inclination": 65.3451,
        "meta_ra_of_asc_node": 320.1442,
        "meta_arg_of_pericenter": 219.1348,
        "meta_mean_anomaly": 140.802,
        "meta_ephemeris_type": 0,
        "meta_classification_type": "U",
        "meta_norad_cat_id": 40001,
        "meta_element_set_no": 999,
        "meta_rev_at_epoch": 8941,
        "meta_bstar": 0,
        "meta_mean_motion_dot": -4.9e-07,
        "meta_mean_motion_ddot": 0,
        "tle_line1": "1 40001U 14032A   25343.46028346 -.00000049  00000+0  00000+0 0  9997",
        "tle_line2": "2 40001  65.3451 320.1442 0008309 219.1348 140.8020  2.13105796 89416"
      },
      "geometry": {
        "type": "Point",
        "coordinates": [
          -50.212266447087366,
          -21.33211681145671
        ]
      }
    },
    {
      "type": "Feature",
      "properties": {
        "norad_id": 40105,
        "name": "GPS BIIF-7  (PRN 09)",
        "group": "gnss",
        "lat": -34.52975724229165,
        "lon": -55.4713007486199,
        "alt_km": 20206.138121927714,
        "timestamp": "2025-12-09T21:34:11.649483+00:00",
        "meta_object_name": "GPS BIIF-7  (PRN 09)",
        "meta_object_id": "2014-045A",
        "meta_epoch": "2025-12-09T14:09:41.937408",
        "meta_mean_motion": 2.00572274,
        "meta_eccentricity": 0.00327632,
        "meta_inclination": 55.2273,
        "meta_ra_of_asc_node": 96.0246,
        "meta_arg_of_pericenter": 119.7913,
        "meta_mean_anomaly": 240.5219,
        "meta_ephemeris_type": 0,
        "meta_classification_type": "U",
        "meta_norad_cat_id": 40105,
        "meta_element_set_no": 999,
        "meta_rev_at_epoch": 8227,
        "meta_bstar": 0,
        "meta_mean_motion_dot": 2e-08,
        "meta_mean_motion_ddot": 0,
        "tle_line1": "1 40105U 14045A   25343.59006872  .00000002  00000+0  00000+0 0  9998",
        "tle_line2": "2 40105  55.2273  96.0246 0032763 119.7913 240.5219  2.00572274 82276"
      },
      "geometry": {
        "type": "Point",
        "coordinates": [
          -55.4713007486199,
          -34.52975724229165
        ]
      }
    }
  ]
}